[{"OBJECT_NAME":"STARLINK-35146","OBJECT_ID":"2025-192T","EPOCH":"2026-03-09T17:56:44.636640","MEAN_MOTION":15.31027108,"ECCENTRICITY":8.437e-5,"INCLINATION":53.1588,"RA_OF_ASC_NODE":232.0446,"ARG_OF_PERICENTER":78.0812,"MEAN_ANOMALY":282.0284,"EPHEMERIS_TYPE":0,"CLASSIFICATION_TYPE":"U","NORAD_CAT_ID":65421,"ELEMENT_SET_NO":999,"REV_AT_EPOCH":2938,"BSTAR":0.0010564982,"MEAN_MOTION_DOT":0.00031879,"MEAN_MOTION_DDOT":0},{"OBJECT_NAME":"KUIPER-00175","OBJECT_ID":"2025-301C","EPOCH":"2026-03-09T23:30:37.840032","MEAN_MOTION":15.30996371,"ECCENTRICITY":0.00022792,"INCLINATION":51.8781,"RA_OF_ASC_NODE":63.6978,"ARG_OF_PERICENTER":50.5695,"MEAN_ANOMALY":309.549,"EPHEMERIS_TYPE":0,"CLASSIFICATION_TYPE":"U","NORAD_CAT_ID":67135,"ELEMENT_SET_NO":999,"REV_AT_EPOCH":1385,"BSTAR":0.00066732304,"MEAN_MOTION_DOT":0.00019968,"MEAN_MOTION_DDOT":0}]
