STARLINK-35146          
1 65421U 25192T   26068.74773885  .00031879  00000+0  10565-2 0  9994
2 65421  53.1588 232.0446 0000843  78.0812 282.0284 15.31027108 29388
KUIPER-00175            
1 67135U 25301C   26068.97960463  .00019968  00000+0  66732-3 0  9998
2 67135  51.8781  63.6978 0002279  50.5695 309.5490 15.30996371 13854
